OBJECT_NAME,OBJECT_ID,EPOCH,MEAN_MOTION,ECCENTRICITY,INCLINATION,RA_OF_ASC_NODE,ARG_OF_PERICENTER,MEAN_ANOMALY,EPHEMERIS_TYPE,CLASSIFICATION_TYPE,NORAD_CAT_ID,ELEMENT_SET_NO,REV_AT_EPOCH,BSTAR,MEAN_MOTION_DOT,MEAN_MOTION_DDOT
TIBA-1,2019-080A,2026-06-05T17:06:29.401056,1.00273533,.0002212,0.0566,16.3825,71.0615,98.8135,0,U,44800,999,2394,0,.168E-5,0
INMARSAT GX5,2019-080B,2026-06-05T16:59:33.385056,1.00269958,.0002593,0.0362,359.4893,75.4264,85.1660,0,U,44801,999,667,0,.87E-6,0
JCSAT-18 (KACIFIC 1),2019-091A,2026-06-05T15:15:38.621088,1.00271046,.0000119,0.0207,235.3813,315.1697,82.4404,0,U,44868,999,2389,0,-.188E-5,0
ELEKTRO-L 3,2019-095A,2026-06-05T17:17:55.584672,1.00272827,.0001518,0.2276,81.1330,348.5494,159.8929,0,U,44903,999,2359,0,-.84E-6,0
SHIJIAN-20 (SJ-20),2019-097A,2026-06-05T12:00:52.358400,1.00273943,.0013773,4.8887,75.2058,51.9840,351.7128,0,U,44910,999,2358,0,.148E-5,0
TJS-5,2020-002A,2026-06-05T16:18:41.285664,1.00271674,.0007644,0.0400,282.6848,123.9711,199.6298,0,U,44978,999,2359,0,-.33E-5,0
GSAT-30,2020-005A,2026-06-05T17:19:59.922048,1.00270408,.0003566,0.0480,108.8130,333.6928,154.6502,0,U,45026,999,2339,0,-.152E-5,0
EUTELSAT KONNECT,2020-005B,2026-06-05T16:58:25.993056,1.00270253,.0000944,0.0702,98.5761,133.1056,284.3075,0,U,45027,999,2422,0,.62E-6,0
JCSAT-17,2020-013A,2026-06-05T12:27:10.469088,1.00271755,.0002977,5.3923,356.7509,75.7155,144.2908,0,U,45245,999,2311,0,-.307E-5,0
GEO-KOMPSAT-2B,2020-013B,2026-06-05T15:50:12.247008,1.00274429,.0000416,0.0382,188.1064,156.0050,275.7933,0,U,45246,999,2316,0,-.331E-5,0
BEIDOU-3 G2,2020-017A,2026-06-05T19:01:52.208832,1.00274228,.0002499,2.8407,47.2431,27.5301,184.9448,0,U,45344,999,2314,0,-.129E-5,0
AEHF-6 (USA 298),2020-022B,2026-06-05T17:35:38.810112,1.00276870,.0043159,2.5739,300.9848,17.6325,337.1374,0,U,45465,999,2289,0,-.286E-5,0
BEIDOU-3 G3,2020-040A,2026-06-05T18:34:42.818016,1.00273806,.0003054,2.4191,67.4251,336.6936,239.3352,0,U,45807,999,2195,0,-.341E-5,0
APSTAR-6D,2020-045A,2026-06-05T20:28:38.798976,1.00260798,.0001775,0.0454,92.5448,340.9699,261.9755,0,U,45863,999,2174,0,-.306E-5,0
KOREASAT 116,2020-048A,2026-06-05T17:29:32.092224,1.00268436,.0001312,0.0163,298.6389,174.2668,159.8172,0,U,45920,999,2152,0,-.349E-5,0
EXPRESS 103,2020-053A,2026-06-04T10:35:53.342304,1.00272180,.00003394,0.0136,291.6750,108.4256,108.2692,0,U,45985,999,2152,0,-.269E-5,0
EXPRESS 80,2020-053B,2026-06-05T01:46:03.920736,1.00273343,.0001521,0.0188,302.5222,202.2217,215.2714,0,U,45986,999,2151,0,-.124E-5,0
BSAT-4B,2020-056A,2026-06-05T16:00:33.399072,1.00267474,.0004251,0.0445,166.2224,307.7540,130.0921,0,U,46112,999,2127,0,-.337E-5,0
MEV-2,2020-056B,2026-06-05T13:04:08.433984,1.00269680,.0000054,0.0141,333.7612,50.4737,64.7707,0,U,46113,999,8044,0,.1E-7,0
GALAXY 30 (G-30),2020-056C,2026-06-05T16:20:39.104160,1.00272553,.0002398,0.0181,332.7175,99.1338,302.4086,0,U,46114,999,2117,0,.49E-6,0
GAOFEN-13 01,2020-071A,2026-06-05T16:19:39.353376,1.00265341,.0041832,0.4909,84.9556,122.7603,49.4152,0,U,46610,999,2080,0,-.35E-5,0
TIANTONG-1 2,2020-082A,2026-06-05T17:32:01.658400,1.00269764,.0001558,0.8058,325.8166,105.6933,210.6040,0,U,46916,999,2053,0,-.343E-5,0
LUCAS (JDRS-1),2020-089A,2026-06-05T17:16:38.691264,1.00269157,.0002773,0.0353,273.1989,147.8743,183.0109,0,U,47202,999,2030,0,-.222E-5,0
SXM-7,2020-096A,2026-06-05T09:41:21.065856,1.00273132,.0004346,0.0333,112.5259,12.3808,189.1172,0,U,47240,999,732,0,-.193E-5,0
CMS-01,2020-099A,2026-06-05T17:19:59.922048,1.00270880,.000351,0.0696,101.3719,183.3396,312.4360,0,U,47256,999,2008,0,-.152E-5,0
TURKSAT 5A,2021-001A,2026-06-05T17:05:14.520768,1.00272430,.0000201,0.0157,47.9281,38.7577,94.7084,0,U,47306,999,1985,0,.167E-5,0
TIANTONG-1 3,2021-003A,2026-06-05T17:16:38.691264,1.00273126,.0003539,1.7655,338.5977,101.3983,154.8569,0,U,47321,999,1984,0,-.144E-5,0
TJS-6,2021-010A,2026-06-02T12:47:20.190048,1.00272435,.00026319,0.5630,87.7253,337.8803,195.7324,0,U,47613,999,1966,0,.55E-6,0
SBIRS GEO-5 (USA 315),2021-042A,2026-06-05T16:52:21.714240,1.00271940,.0001728,5.1185,329.0326,116.0706,155.9359,0,U,48618,999,1865,0,-.259E-5,0
FENGYUN 4B,2021-047A,2026-06-05T14:00:51.750720,1.00266147,.0005178,0.1239,75.7773,289.8220,203.2690,0,U,48808,999,1845,0,-.317E-5,0
SXM-8,2021-049A,2026-06-05T14:49:24.887424,1.00269181,.0004915,0.0212,19.6277,13.2799,358.3518,0,U,48838,999,1846,0,-.193E-5,0
TIANLIAN 1-05,2021-063A,2026-06-05T20:26:31.130880,1.00272832,.0001069,1.5639,80.7966,315.1895,181.7505,0,U,49011,999,1796,0,.121E-5,0
