TIBA-1                  
1 44800U 19080A   26156.71284029  .00000168  00000+0  00000+0 0  9990
2 44800   0.0566  16.3825 0002212  71.0615  98.8135  1.00273533 23943
INMARSAT GX5            
1 44801U 19080B   26156.70802529  .00000087  00000+0  00000+0 0  9991
2 44801   0.0362 359.4893 0002593  75.4264  85.1660  1.00269958  6673
JCSAT-18 (KACIFIC 1)    
1 44868U 19091A   26156.63586367 -.00000188  00000+0  00000+0 0  9990
2 44868   0.0207 235.3813 0000119 315.1697  82.4404  1.00271046 23894
ELEKTRO-L 3             
1 44903U 19095A   26156.72078223 -.00000084  00000+0  00000+0 0  9996
2 44903   0.2276  81.1330 0001518 348.5494 159.8929  1.00272827 23598
SHIJIAN-20 (SJ-20)      
1 44910U 19097A   26156.50060600  .00000148  00000+0  00000+0 0  9992
2 44910   4.8887  75.2058 0013773  51.9840 351.7128  1.00273943 23584
TJS-5                   
1 44978U 20002A   26156.67964451 -.00000330  00000+0  00000+0 0  9993
2 44978   0.0400 282.6848 0007644 123.9711 199.6298  1.00271674 23592
GSAT-30                 
1 45026U 20005A   26156.72222132 -.00000152  00000+0  00000+0 0  9992
2 45026   0.0480 108.8130 0003566 333.6928 154.6502  1.00270408 23398
EUTELSAT KONNECT        
1 45027U 20005B   26156.70724529  .00000062  00000+0  00000+0 0  9997
2 45027   0.0702  98.5761 0000944 133.1056 284.3075  1.00270253 24220
JCSAT-17                
1 45245U 20013A   26156.51887117 -.00000307  00000+0  00000+0 0  9993
2 45245   5.3923 356.7509 0002977  75.7155 144.2908  1.00271755 23117
GEO-KOMPSAT-2B          
1 45246U 20013B   26156.65986397 -.00000331  00000+0  00000+0 0  9996
2 45246   0.0382 188.1064 0000416 156.0050 275.7933  1.00274429 23169
BEIDOU-3 G2             
1 45344U 20017A   26156.79296538 -.00000129  00000+0  00000+0 0  9990
2 45344   2.8407  47.2431 0002499  27.5301 184.9448  1.00274228 23140
AEHF-6 (USA 298)        
1 45465U 20022B   26156.73308808 -.00000286  00000+0  00000+0 0  9992
2 45465   2.5739 300.9848 0043159  17.6325 337.1374  1.00276870 22890
BEIDOU-3 G3             
1 45807U 20040A   26156.77410669 -.00000341  00000+0  00000+0 0  9997
2 45807   2.4191  67.4251 0003054 336.6936 239.3352  1.00273806 21957
APSTAR-6D               
1 45863U 20045A   26156.85322684 -.00000306  00000+0  00000+0 0  9993
2 45863   0.0454  92.5448 0001775 340.9699 261.9755  1.00260798 21745
KOREASAT 116            
1 45920U 20048A   26156.72884366 -.00000349  00000+0  00000+0 0  9993
2 45920   0.0163 298.6389 0001312 174.2668 159.8172  1.00268436 21521
EXPRESS 103             
1 45985U 20053A   26155.44158961 -.00000269  00000+0  00000+0 0  9994
2 45985   0.0136 291.6750 0000339 108.4256 108.2692  1.00272180 21523
EXPRESS 80              
1 45986U 20053B   26156.07365649 -.00000124  00000+0  00000+0 0  9998
2 45986   0.0188 302.5222 0001521 202.2217 215.2714  1.00273343 21516
BSAT-4B                 
1 46112U 20056A   26156.66705323 -.00000337  00000+0  00000+0 0  9991
2 46112   0.0445 166.2224 0004251 307.7540 130.0921  1.00267474 21279
MEV-2                   
1 46113U 20056B   26156.54454206  .00000001  00000+0  00000+0 0  9997
2 46113   0.0141 333.7612 0000054  50.4737  64.7707  1.00269680 80442
GALAXY 30 (G-30)        
1 46114U 20056C   26156.68100815  .00000049  00000+0  00000+0 0  9999
2 46114   0.0181 332.7175 0002398  99.1338 302.4086  1.00272553 21170
GAOFEN-13 01            
1 46610U 20071A   26156.68031659 -.00000350  00000+0  00000+0 0  9992
2 46610   0.4909  84.9556 0041832 122.7603  49.4152  1.00265341 20804
TIANTONG-1 2            
1 46916U 20082A   26156.73057475 -.00000343  00000+0  00000+0 0  9995
2 46916   0.8058 325.8166 0001558 105.6933 210.6040  1.00269764 20534
LUCAS (JDRS-1)          
1 47202U 20089A   26156.71989226 -.00000222  00000+0  00000+0 0  9993
2 47202   0.0353 273.1989 0002773 147.8743 183.0109  1.00269157 20308
SXM-7                   
1 47240U 20096A   26156.40371604 -.00000193  00000+0  00000+0 0  9991
2 47240   0.0333 112.5259 0004346  12.3808 189.1172  1.00273132  7322
CMS-01                  
1 47256U 20099A   26156.72222132 -.00000152  00000+0  00000+0 0  9992
2 47256   0.0696 101.3719 0003510 183.3396 312.4360  1.00270880 20086
TURKSAT 5A              
1 47306U 21001A   26156.71197362  .00000167  00000+0  00000+0 0  9992
2 47306   0.0157  47.9281 0000201  38.7577  94.7084  1.00272430 19850
TIANTONG-1 3            
1 47321U 21003A   26156.71989226 -.00000144  00000+0  00000+0 0  9995
2 47321   1.7655 338.5977 0003539 101.3983 154.8569  1.00273126 19842
TJS-6                   
1 47613U 21010A   26153.53287257  .00000055  00000+0  00000+0 0  9999
2 47613   0.5630  87.7253 0002631 337.8803 195.7324  1.00272435 19660
SBIRS GEO-5 (USA 315)   
1 48618U 21042A   26156.70302910 -.00000259  00000+0  00000+0 0  9993
2 48618   5.1185 329.0326 0001728 116.0706 155.9359  1.00271940 18654
FENGYUN 4B              
1 48808U 21047A   26156.58393230 -.00000317  00000+0  00000+0 0  9995
2 48808   0.1239  75.7773 0005178 289.8220 203.2690  1.00266147 18450
SXM-8                   
1 48838U 21049A   26156.61764916 -.00000193  00000+0  00000+0 0  9999
2 48838   0.0212  19.6277 0004915  13.2799 358.3518  1.00269181 18460
TIANLIAN 1-05           
1 49011U 21063A   26156.85174920  .00000121  00000+0  00000+0 0  9995
2 49011   1.5639  80.7966 0001069 315.1895 181.7505  1.00272832 17960
